420P/Hill,e,14.5042,173.9519,157.0970,5.530718,0.0757760,0.49582679,357.7627,04/23.0/2022,2000,g 11.5,4.0
# From MPEC 2021-W31
421P/McNaught,e,10.0794,55.3477,259.8369,5.075437,0.0861973,0.67547887,38.9780,04/23.0/2022,2000,g 14.0,4.0
# From MPEC 2022-A21
422P/Christensen,e,39.5472,36.0340,305.1544,6.320948,0.0620199,0.50874744,6.1533,04/23.0/2022,2000,g 11.0,4.0
# From MPEC 2022-A21
423P/Lemmon,e,8.3459,33.3046,80.2997,6.166339,0.0643670,0.12104820,13.9347,04/23.0/2022,2000,g  8.0,4.0
# From MPEC 2022-CN4
424P/LaSagra,e,8.6855,51.1775,312.4777,4.414015,0.1062805,0.69126780,18.4253,04/23.0/2022,2000,g 17.0,4.0
# From MPEC 2022-GA9
425P/Kowalski,e,16.4205,210.0850,200.7534,6.331571,0.0618638,0.54352814,13.2705,04/23.0/2022,2000,g 12.0,4.0
# From MPEC 2021-Y10
426P/PANSTARRS,e,17.7730,280.5217,119.1213,3.186283,0.1732916,0.16132113,271.7933,04/23.0/2022,2000,g 13.5,4.0
# From MPEC 2022-C56
428P/Gibbs,e,8.5148,299.3371,36.8232,3.484403,0.1515345,0.51949313,52.0267,04/23.0/2022,2000,g 15.0,4.0
# From MPEC 2022-H04
429P/LINEAR-Hill,e,7.5220,322.0732,75.5388,3.550596,0.1473168,0.49128457,16.3312,04/23.0/2022,2000,g 15.5,4.0
# From MPEC 2022-CN4
430P/Scotti,e,4.4750,54.6720,94.4976,3.106682,0.1799943,0.49959423,25.5205,04/23.0/2022,2000,g 16.5,4.0
# From MPEC 2022-ED3
431P/Scotti,e,22.3922,202.8463,199.8573,3.472273,0.1523292,0.47766608,10.4545,04/23.0/2022,2000,g 14.0,4.0
# From MPEC 2021-U31
432P/PANSTARRS,e,10.0694,239.1429,105.2361,3.035481,0.1863644,0.24202892,43.9170,04/23.0/2022,2000,g 17.0,4.0
# From MPEC 2022-GA9
434P/Tenagra,e,6.3396,288.9680,128.0539,4.128035,0.1175139,0.27435118,21.0553,04/23.0/2022,2000,g 13.0,4.0
# From MPEC 2021-W31
435P/PANSTARRS,e,18.8827,98.5498,244.1518,3.018366,0.1879517,0.31871260,50.6597,04/23.0/2022,2000,g 17.0,4.0
# From MPEC 2022-C56
436P/Garradd,e,20.2105,87.1896,282.5966,5.928859,0.0682727,0.66981348,9.2508,04/23.0/2022,2000,g 14.5,4.0
# From MPEC 2021-Y10
437P/PANSTARRS,e,3.6897,245.8688,206.7116,4.558651,0.1012627,0.25412319,348.1091,04/23.0/2022,2000,g 13.0,4.0
# From MPEC 2021-W47
438P/Christensen,e,8.2877,260.1550,58.9477,3.847060,0.1306203,0.41574398,97.6567,04/23.0/2022,2000,g 14.5,4.0
# From MPEC 2022-C56
439P/LINEAR,e,7.1142,56.4162,342.0009,3.487684,0.1513207,0.46948998,36.3003,04/23.0/2022,2000,g 13.5,4.0
# From MPEC 2022-H30
440P/Kobayashi,e,12.3394,328.8822,183.3181,8.584789,0.0391841,0.76047967,0.9424,04/23.0/2022,2000,g 15.5,4.0
# From MPEC 2022-F14
441P/PANSTARRS,e,2.5745,143.6159,178.7284,4.134796,0.1172257,0.19559906,215.3564,04/23.0/2022,2000,g 13.5,4.0
# From MPC107687
1I/`Oumuamua,h,09/09.4886/2017,122.6778,24.5997,241.6845,1.199252,0.255240,2000,23.0,2.0
# From MPEC 2020-K19
2I/Borisov,h,12/08.5549/2019,44.0527,308.1480,209.1251,3.356636,2.006548,2000,11.0,4.0
